[{"OBJECT_NAME":"ONEWEB-0617","OBJECT_ID":"2023-004U","EPOCH":"2026-03-10T22:47:05.840160","MEAN_MOTION":13.11409088,"ECCENTRICITY":0.0002029,"INCLINATION":87.8864,"RA_OF_ASC_NODE":40.5949,"ARG_OF_PERICENTER":71.5776,"MEAN_ANOMALY":288.5572,"EPHEMERIS_TYPE":0,"CLASSIFICATION_TYPE":"U","NORAD_CAT_ID":55158,"ELEMENT_SET_NO":999,"REV_AT_EPOCH":15298,"BSTAR":-0.0049946,"MEAN_MOTION_DOT":-1.757e-5,"MEAN_MOTION_DDOT":0},{"OBJECT_NAME":"ONEWEB-0618","OBJECT_ID":"2023-004V","EPOCH":"2026-03-11T06:48:34.919136","MEAN_MOTION":15.12001698,"ECCENTRICITY":0.001063,"INCLINATION":86.9073,"RA_OF_ASC_NODE":217.3294,"ARG_OF_PERICENTER":301.3441,"MEAN_ANOMALY":58.6758,"EPHEMERIS_TYPE":0,"CLASSIFICATION_TYPE":"U","NORAD_CAT_ID":55159,"ELEMENT_SET_NO":999,"REV_AT_EPOCH":16746,"BSTAR":0.00052801657,"MEAN_MOTION_DOT":9.106e-5,"MEAN_MOTION_DDOT":0},{"OBJECT_NAME":"ONEWEB-0619","OBJECT_ID":"2023-004W","EPOCH":"2026-03-11T07:02:28.293792","MEAN_MOTION":13.17649952,"ECCENTRICITY":0.00013958,"INCLINATION":87.9161,"RA_OF_ASC_NODE":25.2786,"ARG_OF_PERICENTER":79.6981,"MEAN_ANOMALY":280.4308,"EPHEMERIS_TYPE":0,"CLASSIFICATION_TYPE":"U","NORAD_CAT_ID":55160,"ELEMENT_SET_NO":999,"REV_AT_EPOCH":15470,"BSTAR":8.4740973e-5,"MEAN_MOTION_DOT":4.6e-7,"MEAN_MOTION_DDOT":0},{"OBJECT_NAME":"ONEWEB-0620","OBJECT_ID":"2023-004X","EPOCH":"2026-03-10T22:39:45.377280","MEAN_MOTION":13.11416573,"ECCENTRICITY":0.0002128,"INCLINATION":87.886,"RA_OF_ASC_NODE":40.6119,"ARG_OF_PERICENTER":79.3135,"MEAN_ANOMALY":280.8232,"EPHEMERIS_TYPE":0,"CLASSIFICATION_TYPE":"U","NORAD_CAT_ID":55161,"ELEMENT_SET_NO":999,"REV_AT_EPOCH":15295,"BSTAR":-0.0014124,"MEAN_MOTION_DOT":-4.88e-6,"MEAN_MOTION_DDOT":0},{"OBJECT_NAME":"ONEWEB-0621","OBJECT_ID":"2023-004Y","EPOCH":"2026-03-11T06:38:18.320352","MEAN_MOTION":13.11418681,"ECCENTRICITY":0.00016613,"INCLINATION":87.8873,"RA_OF_ASC_NODE":40.5256,"ARG_OF_PERICENTER":76.3519,"MEAN_ANOMALY":283.7793,"EPHEMERIS_TYPE":0,"CLASSIFICATION_TYPE":"U","NORAD_CAT_ID":55162,"ELEMENT_SET_NO":999,"REV_AT_EPOCH":15297,"BSTAR":0.00065408594,"MEAN_MOTION_DOT":2.45e-6,"MEAN_MOTION_DDOT":0},{"OBJECT_NAME":"ONEWEB-0622","OBJECT_ID":"2023-004Z","EPOCH":"2026-03-11T06:45:36.723456","MEAN_MOTION":13.11419877,"ECCENTRICITY":0.00020696,"INCLINATION":87.8871,"RA_OF_ASC_NODE":40.5267,"ARG_OF_PERICENTER":60.9688,"MEAN_ANOMALY":299.1647,"EPHEMERIS_TYPE":0,"CLASSIFICATION_TYPE":"U","NORAD_CAT_ID":55163,"ELEMENT_SET_NO":999,"REV_AT_EPOCH":15296,"BSTAR":0.0018354331,"MEAN_MOTION_DOT":6.63e-6,"MEAN_MOTION_DDOT":0},{"OBJECT_NAME":"ONEWEB-0623","OBJECT_ID":"2023-004AA","EPOCH":"2026-03-11T06:55:10.811712","MEAN_MOTION":13.17649898,"ECCENTRICITY":0.00015433,"INCLINATION":87.9154,"RA_OF_ASC_NODE":25.3211,"ARG_OF_PERICENTER":56.5152,"MEAN_ANOMALY":303.6127,"EPHEMERIS_TYPE":0,"CLASSIFICATION_TYPE":"U","NORAD_CAT_ID":55164,"ELEMENT_SET_NO":999,"REV_AT_EPOCH":15469,"BSTAR":7.3932173e-5,"MEAN_MOTION_DOT":4.2e-7,"MEAN_MOTION_DDOT":0},{"OBJECT_NAME":"ONEWEB-0624","OBJECT_ID":"2023-004AB","EPOCH":"2026-03-11T06:23:17.983968","MEAN_MOTION":13.12924146,"ECCENTRICITY":0.00016595,"INCLINATION":87.9004,"RA_OF_ASC_NODE":10.0386,"ARG_OF_PERICENTER":76.5513,"MEAN_ANOMALY":283.5801,"EPHEMERIS_TYPE":0,"CLASSIFICATION_TYPE":"U","NORAD_CAT_ID":55165,"ELEMENT_SET_NO":999,"REV_AT_EPOCH":15522,"BSTAR":0.00060456924,"MEAN_MOTION_DOT":2.32e-6,"MEAN_MOTION_DDOT":0},{"OBJECT_NAME":"ONEWEB-0625","OBJECT_ID":"2023-004AC","EPOCH":"2026-03-11T06:40:36.063552","MEAN_MOTION":13.1765001,"ECCENTRICITY":0.00017734,"INCLINATION":87.9153,"RA_OF_ASC_NODE":25.3166,"ARG_OF_PERICENTER":86.1398,"MEAN_ANOMALY":273.9937,"EPHEMERIS_TYPE":0,"CLASSIFICATION_TYPE":"U","NORAD_CAT_ID":55166,"ELEMENT_SET_NO":999,"REV_AT_EPOCH":15468,"BSTAR":4.8040548e-5,"MEAN_MOTION_DOT":3.2e-7,"MEAN_MOTION_DDOT":0},{"OBJECT_NAME":"ONEWEB-0626","OBJECT_ID":"2023-004AD","EPOCH":"2026-03-11T06:25:59.696256","MEAN_MOTION":13.17647856,"ECCENTRICITY":0.00023136,"INCLINATION":87.9152,"RA_OF_ASC_NODE":25.3189,"ARG_OF_PERICENTER":82.5493,"MEAN_ANOMALY":277.5901,"EPHEMERIS_TYPE":0,"CLASSIFICATION_TYPE":"U","NORAD_CAT_ID":55167,"ELEMENT_SET_NO":999,"REV_AT_EPOCH":15468,"BSTAR":8.4400216e-5,"MEAN_MOTION_DOT":4.6e-7,"MEAN_MOTION_DDOT":0},{"OBJECT_NAME":"ONEWEB-0627","OBJECT_ID":"2023-004AE","EPOCH":"2026-03-11T06:09:00.499392","MEAN_MOTION":13.17650302,"ECCENTRICITY":0.00016108,"INCLINATION":87.9151,"RA_OF_ASC_NODE":25.3214,"ARG_OF_PERICENTER":64.4836,"MEAN_ANOMALY":295.6462,"EPHEMERIS_TYPE":0,"CLASSIFICATION_TYPE":"U","NORAD_CAT_ID":55168,"ELEMENT_SET_NO":999,"REV_AT_EPOCH":15468,"BSTAR":0.0001430291,"MEAN_MOTION_DOT":6.8e-7,"MEAN_MOTION_DDOT":0},{"OBJECT_NAME":"ONEWEB-0628","OBJECT_ID":"2023-004AF","EPOCH":"2026-03-11T06:54:26.179200","MEAN_MOTION":13.12442411,"ECCENTRICITY":0.00013637,"INCLINATION":87.9004,"RA_OF_ASC_NODE":10.0834,"ARG_OF_PERICENTER":57.6782,"MEAN_ANOMALY":302.4479,"EPHEMERIS_TYPE":0,"CLASSIFICATION_TYPE":"U","NORAD_CAT_ID":55169,"ELEMENT_SET_NO":999,"REV_AT_EPOCH":15519,"BSTAR":0.0010236245,"MEAN_MOTION_DOT":3.81e-6,"MEAN_MOTION_DDOT":0},{"OBJECT_NAME":"ONEWEB-0629","OBJECT_ID":"2023-004AG","EPOCH":"2026-03-11T07:23:05.928000","MEAN_MOTION":13.17648146,"ECCENTRICITY":0.00014878,"INCLINATION":87.915,"RA_OF_ASC_NODE":25.3082,"ARG_OF_PERICENTER":82.1557,"MEAN_ANOMALY":277.9743,"EPHEMERIS_TYPE":0,"CLASSIFICATION_TYPE":"U","NORAD_CAT_ID":55170,"ELEMENT_SET_NO":999,"REV_AT_EPOCH":15469,"BSTAR":0.00023612263,"MEAN_MOTION_DOT":1.05e-6,"MEAN_MOTION_DDOT":0},{"OBJECT_NAME":"ONEWEB-0631","OBJECT_ID":"2023-004AH","EPOCH":"2026-03-11T07:06:43.579008","MEAN_MOTION":13.18686417,"ECCENTRICITY":0.00022483,"INCLINATION":87.9251,"RA_OF_ASC_NODE":354.8769,"ARG_OF_PERICENTER":71.1635,"MEAN_ANOMALY":288.9741,"EPHEMERIS_TYPE":0,"CLASSIFICATION_TYPE":"U","NORAD_CAT_ID":55171,"ELEMENT_SET_NO":999,"REV_AT_EPOCH":15677,"BSTAR":3.0816699e-5,"MEAN_MOTION_DOT":2.5e-7,"MEAN_MOTION_DDOT":0},{"OBJECT_NAME":"ONEWEB-0709","OBJECT_ID":"2023-004AJ","EPOCH":"2026-03-11T07:34:27.437376","MEAN_MOTION":13.11414037,"ECCENTRICITY":0.00027101,"INCLINATION":87.8859,"RA_OF_ASC_NODE":40.5411,"ARG_OF_PERICENTER":88.0115,"MEAN_ANOMALY":272.1324,"EPHEMERIS_TYPE":0,"CLASSIFICATION_TYPE":"U","NORAD_CAT_ID":55172,"ELEMENT_SET_NO":999,"REV_AT_EPOCH":15304,"BSTAR":-0.00095436328,"MEAN_MOTION_DOT":-3.26e-6,"MEAN_MOTION_DDOT":0},{"OBJECT_NAME":"ONEWEB-0710","OBJECT_ID":"2023-004AK","EPOCH":"2026-03-10T20:47:40.314912","MEAN_MOTION":13.17647661,"ECCENTRICITY":0.00018256,"INCLINATION":87.9154,"RA_OF_ASC_NODE":25.391,"ARG_OF_PERICENTER":74.9591,"MEAN_ANOMALY":285.1743,"EPHEMERIS_TYPE":0,"CLASSIFICATION_TYPE":"U","NORAD_CAT_ID":55173,"ELEMENT_SET_NO":999,"REV_AT_EPOCH":15463,"BSTAR":-0.00012619085,"MEAN_MOTION_DOT":-3.6e-7,"MEAN_MOTION_DDOT":0},{"OBJECT_NAME":"ONEWEB-0711","OBJECT_ID":"2023-004AL","EPOCH":"2026-03-11T05:03:05.485824","MEAN_MOTION":13.11416787,"ECCENTRICITY":0.00017524,"INCLINATION":87.8875,"RA_OF_ASC_NODE":40.5439,"ARG_OF_PERICENTER":57.5329,"MEAN_ANOMALY":302.5968,"EPHEMERIS_TYPE":0,"CLASSIFICATION_TYPE":"U","NORAD_CAT_ID":55174,"ELEMENT_SET_NO":999,"REV_AT_EPOCH":15299,"BSTAR":0.0014964658,"MEAN_MOTION_DOT":5.43e-6,"MEAN_MOTION_DDOT":0}]
