ONEWEB-0617             
1 55158U 23004U   26069.94937315 -.00001757  00000+0 -49946-2 0  9992
2 55158  87.8864  40.5949 0002029  71.5776 288.5572 13.11409088152981
ONEWEB-0618             
1 55159U 23004V   26070.28373749  .00009106  00000+0  52802-3 0  9997
2 55159  86.9073 217.3294 0010630 301.3441  58.6758 15.12001698167460
ONEWEB-0619             
1 55160U 23004W   26070.29338303  .00000046  00000+0  84741-4 0  9999
2 55160  87.9161  25.2786 0001395  79.6981 280.4308 13.17649952154708
ONEWEB-0620             
1 55161U 23004X   26069.94427520 -.00000488  00000+0 -14124-2 0  9998
2 55161  87.8860  40.6119 0002128  79.3135 280.8232 13.11416573152958
ONEWEB-0621             
1 55162U 23004Y   26070.27660093  .00000245  00000+0  65409-3 0  9993
2 55162  87.8873  40.5256 0001661  76.3519 283.7793 13.11418681152976
ONEWEB-0622             
1 55163U 23004Z   26070.28167504  .00000663  00000+0  18354-2 0  9994
2 55163  87.8871  40.5267 0002069  60.9688 299.1647 13.11419877152962
ONEWEB-0623             
1 55164U 23004AA  26070.28831958  .00000042  00000+0  73932-4 0  9992
2 55164  87.9154  25.3211 0001543  56.5152 303.6127 13.17649898154691
ONEWEB-0624             
1 55165U 23004AB  26070.26618037  .00000232  00000+0  60457-3 0  9990
2 55165  87.9004  10.0386 0001659  76.5513 283.5801 13.12924146155223
ONEWEB-0625             
1 55166U 23004AC  26070.27819518  .00000032  00000+0  48041-4 0  9993
2 55166  87.9153  25.3166 0001773  86.1398 273.9937 13.17650010154682
ONEWEB-0626             
1 55167U 23004AD  26070.26805204  .00000046  00000+0  84400-4 0  9994
2 55167  87.9152  25.3189 0002313  82.5493 277.5901 13.17647856154689
ONEWEB-0627             
1 55168U 23004AE  26070.25625578  .00000068  00000+0  14303-3 0  9996
2 55168  87.9151  25.3214 0001610  64.4836 295.6462 13.17650302154680
ONEWEB-0628             
1 55169U 23004AF  26070.28780300  .00000381  00000+0  10236-2 0  9993
2 55169  87.9004  10.0834 0001363  57.6782 302.4479 13.12442411155193
ONEWEB-0629             
1 55170U 23004AG  26070.30770750  .00000105  00000+0  23612-3 0  9993
2 55170  87.9150  25.3082 0001487  82.1557 277.9743 13.17648146154693
ONEWEB-0631             
1 55171U 23004AH  26070.29633772  .00000025  00000+0  30817-4 0  9991
2 55171  87.9251 354.8769 0002248  71.1635 288.9741 13.18686417156774
ONEWEB-0709             
1 55172U 23004AJ  26070.31559534 -.00000326  00000+0 -95436-3 0  9991
2 55172  87.8859  40.5411 0002710  88.0115 272.1324 13.11414037153044
ONEWEB-0710             
1 55173U 23004AK  26069.86643883 -.00000036  00000+0 -12619-3 0  9991
2 55173  87.9154  25.3910 0001825  74.9591 285.1743 13.17647661154639
ONEWEB-0711             
1 55174U 23004AL  26070.21048016  .00000543  00000+0  14965-2 0  9996
2 55174  87.8875  40.5439 0001752  57.5329 302.5968 13.11416787152996
